start=new Date('2022-06-18T00:00:00.000Z').valueOf();
sats=[{"RA_OF_ASC_NODE":"149.1706","COUNTRY_CODE":"US","EPOCH":"2022-06-15T23:01:21.689184","ELEMENT_SET_NO":"999","ECCENTRICITY":"0.00017030","TLE_LINE2":"2 48106  53.0549 149.1706 0001703  62.8455 297.2707 15.06404471 67308","PERIOD":"95.592","ARG_OF_PERICENTER":"62.8455","TIME_SYSTEM":"UTC","LAUNCH_DATE":"2021-04-07","FILE":"3497002","INCLINATION":"53.0549","OBJECT_ID":"2021-027Q","CENTER_NAME":"EARTH","MEAN_ANOMALY":"297.2707","REV_AT_EPOCH":"6730","PERIAPSIS":"546.020","MEAN_MOTION":"15.06404471","MEAN_MOTION_DOT":"0.00000155","DECAY_DATE":null,"EPHEMERIS_TYPE":"0","SEMIMAJOR_AXIS":"6925.335","REF_FRAME":"TEME","OBJECT_TYPE":"PAYLOAD","CLASSIFICATION_TYPE":"U","MEAN_ELEMENT_THEORY":"SGP4","MEAN_MOTION_DDOT":"0.0000000000000","APOAPSIS":"548.379","SITE":"AFETR","GP_ID":"206287957","OBJECT_NAME":"STARLINK-2442","TLE_LINE1":"1 48106U 21027Q   22166.95927881  .00000155  00000-0  29306-4 0  9992","NORAD_CAT_ID":"48106","RCS_SIZE":"LARGE","BSTAR":"0.00002930600000"},{"RCS_SIZE":"LARGE","BSTAR":"-0.00004846700000","TLE_LINE1":"1 48107U 21027R   22166.97402504 -.00001004  00000-0 -48467-4 0  9990","NORAD_CAT_ID":"48107","OBJECT_NAME":"STARLINK-2443","APOAPSIS":"548.493","SITE":"AFETR","GP_ID":"206288205","MEAN_ELEMENT_THEORY":"SGP4","MEAN_MOTION_DDOT":"0.0000000000000","CLASSIFICATION_TYPE":"U","OBJECT_TYPE":"PAYLOAD","SEMIMAJOR_AXIS":"6925.313","REF_FRAME":"TEME","MEAN_ANOMALY":"298.4965","REV_AT_EPOCH":"6730","PERIAPSIS":"545.864","MEAN_MOTION_DOT":"-0.00001004","MEAN_MOTION":"15.06411566","EPHEMERIS_TYPE":"0","DECAY_DATE":null,"OBJECT_ID":"2021-027R","CENTER_NAME":"EARTH","LAUNCH_DATE":"2021-04-07","FILE":"3497002","INCLINATION":"53.0555","TLE_LINE2":"2 48107  53.0555 149.0934 0001898  61.6215 298.4965 15.06411566 67306","PERIOD":"95.591","ARG_OF_PERICENTER":"61.6215","ECCENTRICITY":"0.00018980","TIME_SYSTEM":"UTC","RA_OF_ASC_NODE":"149.0934","EPOCH":"2022-06-15T23:22:35.763456","COUNTRY_CODE":"US","ELEMENT_SET_NO":"999"},{"TIME_SYSTEM":"UTC","ARG_OF_PERICENTER":"68.4837","TLE_LINE2":"2 48108  53.0543 158.9179 0001762  68.4837 291.6339 15.06411136 67166","PERIOD":"95.591","ECCENTRICITY":"0.00017620","ELEMENT_SET_NO":"999","COUNTRY_CODE":"US","EPOCH":"2022-06-16T00:19:39.372096","RA_OF_ASC_NODE":"158.9179","INCLINATION":"53.0543","FILE":"3497002","LAUNCH_DATE":"2021-04-07","CENTER_NAME":"EARTH","OBJECT_ID":"2021-027S","REF_FRAME":"TEME","SEMIMAJOR_AXIS":"6925.314","DECAY_DATE":null,"EPHEMERIS_TYPE":"0","MEAN_MOTION_DOT":"0.00001150","PERIAPSIS":"545.959","MEAN_MOTION":"15.06411136","MEAN_ANOMALY":"291.6339","REV_AT_EPOCH":"6716","MEAN_MOTION_DDOT":"0.0000000000000","MEAN_ELEMENT_THEORY":"SGP4","CLASSIFICATION_TYPE":"U","OBJECT_TYPE":"PAYLOAD","OBJECT_NAME":"STARLINK-2444","GP_ID":"206288953","SITE":"AFETR","APOAPSIS":"548.400","BSTAR":"0.00009604000000","RCS_SIZE":"LARGE","NORAD_CAT_ID":"48108","TLE_LINE1":"1 48108U 21027S   22167.01365014  .00001150  00000-0  96040-4 0  9991"},{"CLASSIFICATION_TYPE":"U","OBJECT_TYPE":"PAYLOAD","MEAN_MOTION_DDOT":"0.0000000000000","MEAN_ELEMENT_THEORY":"SGP4","APOAPSIS":"548.311","GP_ID":"206287709","SITE":"AFETR","OBJECT_NAME":"STARLINK-2445","NORAD_CAT_ID":"48109","TLE_LINE1":"1 48109U 21027T   22167.02748036 -.00000462  00000-0 -12131-4 0  9998","RCS_SIZE":"LARGE","BSTAR":"-0.00001213100000","RA_OF_ASC_NODE":"168.8528","ELEMENT_SET_NO":"999","COUNTRY_CODE":"US","EPOCH":"2022-06-16T00:39:34.303104","TIME_SYSTEM":"UTC","PERIOD":"95.593","TLE_LINE2":"2 48109  53.0539 168.8528 0001521  45.3153 314.7960 15.06385613 67031","ECCENTRICITY":"0.00015210","ARG_OF_PERICENTER":"45.3153","LAUNCH_DATE":"2021-04-07","INCLINATION":"53.0539","FILE":"3497002","OBJECT_ID":"2021-027T","CENTER_NAME":"EARTH","MEAN_ANOMALY":"314.7960","REV_AT_EPOCH":"6703","EPHEMERIS_TYPE":"0","DECAY_DATE":null,"MEAN_MOTION":"15.06385613","PERIAPSIS":"546.204","MEAN_MOTION_DOT":"-0.00000462","SEMIMAJOR_AXIS":"6925.393","REF_FRAME":"TEME"},{"EPOCH":"2022-06-15T16:06:01.742400","COUNTRY_CODE":"US","ELEMENT_SET_NO":"999","RA_OF_ASC_NODE":"160.4541","PERIOD":"95.592","TLE_LINE2":"2 48110  53.0534 160.4541 0001555  60.9232 299.1913 15.06399007 67125","ARG_OF_PERICENTER":"60.9232","ECCENTRICITY":"0.00015550","TIME_SYSTEM":"UTC","FILE":"3496999","INCLINATION":"53.0534","LAUNCH_DATE":"2021-04-07","CENTER_NAME":"EARTH","OBJECT_ID":"2021-027U","MEAN_MOTION_DOT":"0.00000948","PERIAPSIS":"546.140","MEAN_MOTION":"15.06399007","DECAY_DATE":null,"EPHEMERIS_TYPE":"0","REV_AT_EPOCH":"6712","MEAN_ANOMALY":"299.1913","REF_FRAME":"TEME","SEMIMAJOR_AXIS":"6925.352","OBJECT_TYPE":"PAYLOAD","CLASSIFICATION_TYPE":"U","MEAN_ELEMENT_THEORY":"SGP4","MEAN_MOTION_DDOT":"0.0000000000000","SITE":"AFETR","GP_ID":"206236702","APOAPSIS":"548.293","OBJECT_NAME":"STARLINK-2447","TLE_LINE1":"1 48110U 21027U   22166.67085350  .00000948  00000-0  82521-4 0  9990","NORAD_CAT_ID":"48110","BSTAR":"0.00008252100000","RCS_SIZE":"LARGE"},{"MEAN_ANOMALY":"292.6054","REV_AT_EPOCH":"6717","MEAN_MOTION":"15.06400318","PERIAPSIS":"546.400","MEAN_MOTION_DOT":"-0.00000304","EPHEMERIS_TYPE":"0","DECAY_DATE":null,"SEMIMAJOR_AXIS":"6925.348","REF_FRAME":"TEME","OBJECT_ID":"2021-027V","CENTER_NAME":"EARTH","LAUNCH_DATE":"2021-04-07","FILE":"3497002","INCLINATION":"53.0547","RA_OF_ASC_NODE":"158.9679","COUNTRY_CODE":"US","EPOCH":"2022-06-15T23:53:06.224352","ELEMENT_SET_NO":"999","TLE_LINE2":"2 48111  53.0547 158.9679 0001173  67.5059 292.6054 15.06400318 67177","ARG_OF_PERICENTER":"67.5059","PERIOD":"95.592","ECCENTRICITY":"0.00011730","TIME_SYSTEM":"UTC","TLE_LINE1":"1 48111U 21027V   22166.99521093 -.00000304  00000-0 -15181-5 0  9992","NORAD_CAT_ID":"48111","RCS_SIZE":"LARGE","BSTAR":"-0.00000151810000","APOAPSIS":"548.025","SITE":"AFETR","GP_ID":"206288706","OBJECT_NAME":"STARLINK-2448","CLASSIFICATION_TYPE":"U","OBJECT_TYPE":"PAYLOAD","MEAN_ELEMENT_THEORY":"SGP4","MEAN_MOTION_DDOT":"0.0000000000000"},{"RA_OF_ASC_NODE":"177.4534","ELEMENT_SET_NO":"999","EPOCH":"2022-06-15T06:10:04.671264","COUNTRY_CODE":"US","TIME_SYSTEM":"UTC","ARG_OF_PERICENTER":"316.5852","TLE_LINE2":"2 48112  53.0540 177.4534 0003886 316.5852  43.4830 15.06613653 66843","PERIOD":"95.579","ECCENTRICITY":"0.00038860","LAUNCH_DATE":"2021-04-07","INCLINATION":"53.0540","FILE":"3496794","OBJECT_ID":"2021-027W","CENTER_NAME":"EARTH","REV_AT_EPOCH":"6684","MEAN_ANOMALY":"43.4830","DECAY_DATE":null,"EPHEMERIS_TYPE":"0","MEAN_MOTION":"15.06613653","PERIAPSIS":"543.868","MEAN_MOTION_DOT":"0.00340510","SEMIMAJOR_AXIS":"6924.694","REF_FRAME":"TEME","CLASSIFICATION_TYPE":"U","OBJECT_TYPE":"PAYLOAD","MEAN_MOTION_DDOT":"0.0000000000000","MEAN_ELEMENT_THEORY":"SGP4","APOAPSIS":"549.250","GP_ID":"206208009","SITE":"AFETR","OBJECT_NAME":"STARLINK-2449","NORAD_CAT_ID":"48112","TLE_LINE1":"1 48112U 21027W   22166.25699851  .00340510  00000-0  21673-1 0  9993","RCS_SIZE":"LARGE","BSTAR":"0.02167300000000"},{"BSTAR":"0.00008574100000","RCS_SIZE":"LARGE","NORAD_CAT_ID":"48113","TLE_LINE1":"1 48113U 21027X   22166.99060926  .00000996  00000-0  85741-4 0  9990","MEAN_MOTION_DDOT":"0.0000000000000","MEAN_ELEMENT_THEORY":"SGP4","CLASSIFICATION_TYPE":"U","OBJECT_TYPE":"PAYLOAD","OBJECT_NAME":"STARLINK-2450","GP_ID":"206287209","SITE":"AFETR","APOAPSIS":"548.316","CENTER_NAME":"EARTH","OBJECT_ID":"2021-027X","REF_FRAME":"TEME","SEMIMAJOR_AXIS":"6925.359","DECAY_DATE":null,"EPHEMERIS_TYPE":"0","MEAN_MOTION_DOT":"0.00000996","PERIAPSIS":"546.133","MEAN_MOTION":"15.06396470","REV_AT_EPOCH":"6701","MEAN_ANOMALY":"298.1656","TIME_SYSTEM":"UTC","ARG_OF_PERICENTER":"61.9492","TLE_LINE2":"2 48113  53.0539 169.0167 0001576  61.9492 298.1656 15.06396470 67016","PERIOD":"95.592","ECCENTRICITY":"0.00015760","ELEMENT_SET_NO":"999","EPOCH":"2022-06-15T23:46:28.640064","COUNTRY_CODE":"US","RA_OF_ASC_NODE":"169.0167","INCLINATION":"53.0539","FILE":"3497002","LAUNCH_DATE":"2021-04-07"},{"BSTAR":"0.00001263500000","RCS_SIZE":"LARGE","NORAD_CAT_ID":"48114","TLE_LINE1":"1 48114U 21027Y   22167.01777782 -.00000093  00000-0  12635-4 0  9991","OBJECT_NAME":"STARLINK-2451","GP_ID":"206287958","SITE":"AFETR","APOAPSIS":"548.290","MEAN_MOTION_DDOT":"0.0000000000000","MEAN_ELEMENT_THEORY":"SGP4","OBJECT_TYPE":"PAYLOAD","CLASSIFICATION_TYPE":"U","REF_FRAME":"TEME","SEMIMAJOR_AXIS":"6925.345","DECAY_DATE":null,"EPHEMERIS_TYPE":"0","MEAN_MOTION_DOT":"-0.00000093","PERIAPSIS":"546.130","MEAN_MOTION":"15.06401145","MEAN_ANOMALY":"292.7263","REV_AT_EPOCH":"6710","CENTER_NAME":"EARTH","OBJECT_ID":"2021-027Y","INCLINATION":"53.0526","FILE":"3497002","LAUNCH_DATE":"2021-04-07","TIME_SYSTEM":"UTC","ECCENTRICITY":"0.00015590","TLE_LINE2":"2 48114  53.0526 163.8990 0001559  67.3891 292.7263 15.06401145 67103","PERIOD":"95.592","ARG_OF_PERICENTER":"67.3891","ELEMENT_SET_NO":"999","COUNTRY_CODE":"US","EPOCH":"2022-06-16T00:25:36.003648","RA_OF_ASC_NODE":"163.8990"},{"MEAN_MOTION_DDOT":"0.0000000000000","MEAN_ELEMENT_THEORY":"SGP4","OBJECT_TYPE":"PAYLOAD","CLASSIFICATION_TYPE":"U","OBJECT_NAME":"STARLINK-2452","GP_ID":"206288206","SITE":"AFETR","APOAPSIS":"548.446","BSTAR":"0.00013943000000","RCS_SIZE":"LARGE","NORAD_CAT_ID":"48115","TLE_LINE1":"1 48115U 21027Z   22166.97952401  .00001796  00000-0  13943-3 0  9991","TIME_SYSTEM":"UTC","TLE_LINE2":"2 48115  53.0535 159.0695 0001800  56.2276 303.8884 15.06404737 67165","PERIOD":"95.592","ECCENTRICITY":"0.00018000","ARG_OF_PERICENTER":"56.2276","ELEMENT_SET_NO":"999","COUNTRY_CODE":"US","EPOCH":"2022-06-15T23:30:30.874464","RA_OF_ASC_NODE":"159.0695","INCLINATION":"53.0535","FILE":"3497002","LAUNCH_DATE":"2021-04-07","CENTER_NAME":"EARTH","OBJECT_ID":"2021-027Z","REF_FRAME":"TEME","SEMIMAJOR_AXIS":"6925.334","EPHEMERIS_TYPE":"0","DECAY_DATE":null,"PERIAPSIS":"545.952","MEAN_MOTION_DOT":"0.00001796","MEAN_MOTION":"15.06404737","MEAN_ANOMALY":"303.8884","REV_AT_EPOCH":"6716"}];
